[{"OBJECT_NAME":"STARLINK-5416","OBJECT_ID":"2022-177AM","EPOCH":"2026-03-09T22:00:01.999584","MEAN_MOTION":15.11942411,"ECCENTRICITY":0.0002021,"INCLINATION":43.0002,"RA_OF_ASC_NODE":118.8885,"ARG_OF_PERICENTER":260.24,"MEAN_ANOMALY":33.7143,"EPHEMERIS_TYPE":0,"CLASSIFICATION_TYPE":"U","NORAD_CAT_ID":54855,"ELEMENT_SET_NO":999,"REV_AT_EPOCH":557,"BSTAR":0.001606781,"MEAN_MOTION_DOT":0.00027917,"MEAN_MOTION_DDOT":0},{"OBJECT_NAME":"CZ-6A DEB","OBJECT_ID":"2024-140ADS","EPOCH":"2026-03-09T14:05:09.302208","MEAN_MOTION":15.17885306,"ECCENTRICITY":0.0073653,"INCLINATION":89.0442,"RA_OF_ASC_NODE":281.8925,"ARG_OF_PERICENTER":121.24,"MEAN_ANOMALY":239.6089,"EPHEMERIS_TYPE":0,"CLASSIFICATION_TYPE":"U","NORAD_CAT_ID":64628,"ELEMENT_SET_NO":999,"REV_AT_EPOCH":8034,"BSTAR":0.0029018,"MEAN_MOTION_DOT":0.00063537,"MEAN_MOTION_DDOT":0}]
